{
  "updated": "2026-07-21T02:07:47.224Z",
  "capsules": {
    "66664": {
      "name": "SOYUZ-MS 28",
      "kind": "crew",
      "family": "soyuz",
      "phase": "docked",
      "stationKey": "iss",
      "since": "2026-07-03T10:34:14.509Z",
      "distanceKm": 0,
      "altitudeKm": 427.1,
      "inclinationDeg": 51.631,
      "l1": "1 66664U 25275A   26201.79846069  .00005574  00000+0  10900-3 0  9992",
      "l2": "2 66664  51.6312 133.7599 0006836 319.3995  40.6483 15.49066413576391"
    },
    "67796": {
      "name": "CREW DRAGON 12",
      "kind": "crew",
      "family": "dragon",
      "phase": "docked",
      "stationKey": "iss",
      "since": "2026-07-03T10:34:14.509Z",
      "distanceKm": 0,
      "altitudeKm": 427.1,
      "inclinationDeg": 51.631,
      "l1": "1 67796U 26031A   26201.79846069  .00005574  00000+0  10900-3 0  9990",
      "l2": "2 67796  51.6312 133.7599 0006836 319.3995  40.6483 15.49066413576354"
    },
    "68319": {
      "name": "PROGRESS-MS 33",
      "kind": "cargo",
      "family": "progress",
      "phase": "docked",
      "stationKey": "iss",
      "since": "2026-07-10T20:18:26.588Z",
      "distanceKm": 0,
      "altitudeKm": 427.1,
      "inclinationDeg": 51.631,
      "l1": "1 68319U 26058A   26201.79846069  .00005574  00000+0  10900-3 0  9991",
      "l2": "2 68319  51.6312 133.7599 0006836 319.3995  40.6483 15.49066413576435"
    },
    "68689": {
      "name": "CYGNUS NG-24",
      "kind": "cargo",
      "family": "cygnus",
      "phase": "docked",
      "stationKey": "iss",
      "since": "2026-07-10T20:18:26.588Z",
      "distanceKm": 0.4,
      "altitudeKm": 427.1,
      "inclinationDeg": 51.631,
      "l1": "1 68689U 26079A   26201.47589808  .00004742  00000+0  93971-4 0  9990",
      "l2": "2 68689  51.6314 135.3560 0006828 318.0948  41.9517 15.49061331576423"
    },
    "68837": {
      "name": "PROGRESS-MS 34",
      "kind": "cargo",
      "family": "progress",
      "phase": "docked",
      "stationKey": "iss",
      "since": "2026-07-10T20:18:26.588Z",
      "distanceKm": 0.4,
      "altitudeKm": 427.1,
      "inclinationDeg": 51.631,
      "l1": "1 68837U 26093A   26201.47589808  .00004742  00000+0  93971-4 0  9991",
      "l2": "2 68837  51.6314 135.3560 0006828 318.0948  41.9517 15.49061331576462"
    },
    "69049": {
      "name": "TIANZHOU-10",
      "kind": "cargo",
      "family": "tianzhou",
      "phase": "docked",
      "stationKey": "css",
      "since": "2026-07-10T20:18:26.588Z",
      "distanceKm": 2.7,
      "altitudeKm": 402.2,
      "inclinationDeg": 41.468,
      "l1": "1 69049U 26102A   26201.47071797  .00012149  00000+0  16027-3 0  9997",
      "l2": "2 69049  41.4682 119.8551 0001861 306.8852  53.1815 15.58221898298004"
    },
    "69180": {
      "name": "SHENZHOU-23 (SZ-23)",
      "kind": "crew",
      "family": "shenzhou",
      "phase": "docked",
      "stationKey": "css",
      "since": "2026-07-03T10:34:14.509Z",
      "distanceKm": 2.7,
      "altitudeKm": 402.2,
      "inclinationDeg": 41.468,
      "l1": "1 69180U 26113A   26201.47071797  .00012149  00000+0  16027-3 0  9995",
      "l2": "2 69180  41.4682 119.8551 0001861 306.8852  53.1815 15.58221898297795"
    }
  },
  "events": [
    {
      "id": "68319",
      "name": "PROGRESS-MS 33",
      "kind": "cargo",
      "family": "progress",
      "stationKey": "iss",
      "event": "launched",
      "at": "2026-07-10T20:18:26.588Z"
    },
    {
      "id": "68689",
      "name": "CYGNUS NG-24",
      "kind": "cargo",
      "family": "cygnus",
      "stationKey": "iss",
      "event": "launched",
      "at": "2026-07-10T20:18:26.588Z"
    },
    {
      "id": "68837",
      "name": "PROGRESS-MS 34",
      "kind": "cargo",
      "family": "progress",
      "stationKey": "iss",
      "event": "launched",
      "at": "2026-07-10T20:18:26.588Z"
    },
    {
      "id": "69049",
      "name": "TIANZHOU-10",
      "kind": "cargo",
      "family": "tianzhou",
      "stationKey": "css",
      "event": "launched",
      "at": "2026-07-10T20:18:26.588Z"
    }
  ]
}
